NORAD_CAT_ID,OBJECT_NAME,OBJECT_TYPE,EPOCH,MEAN_MOTION,ECCENTRICITY,INCLINATION,RA_OF_ASC_NODE,ARG_OF_PERICENTER,MEAN_ANOMALY,BSTAR,MEAN_MOTION_DOT,MEAN_MOTION_DDOT,TLE_LINE0,TLE_LINE1,TLE_LINE2,SEMIMAJOR_AXIS,PERIOD,APOGEE,PERIGEE,DECAYED
53722.0,STARLINK-4700,PAYLOAD,2022-11-08 22:00:00,15.21958233,0.000125,53.2122,316.4299,94.6059,205.1416,-0.052156,-0.01113895,0.0,0 STARLINK-4700,1 53722U 22107Y   22312.91667824 -.01113895  00000-0 -52156-1 0  9994,2 53722  53.2122 316.4299 0001250  94.6059 205.1416 15.21958233 10257,6878.071,94.615,500.796,499.077,0.0
53722.0,STARLINK-4700,PAYLOAD,2022-11-09 14:00:01,15.20405847,0.000109,53.2141,313.3826,75.277,277.2356,-0.062338,-0.01258536,0.0,0 STARLINK-4700,1 53722U 22107Y   22313.58334491 -.01258536  00000-0 -62338-1 0  9994,2 53722  53.2141 313.3826 0001090  75.2770 277.2356 15.20405847  1303,6882.753000000002,94.712,505.36800000000005,503.867,0.0
53722.0,STARLINK-4700,PAYLOAD,2022-11-09 22:00:01,15.19554204,0.0001186,53.2145,311.858,92.0739,285.4458,-0.061215,-0.01209688,0.0,0 STARLINK-4700,1 53722U 22107Y   22313.91668981 -.01209688  00000-0 -61215-1 0  9992,2 53722  53.2145 311.8580 0001186  92.0739 285.4458 15.19554204 10411,6885.324000000001,94.765,508.006,506.372,0.0
53722.0,STARLINK-4700,PAYLOAD,2022-11-10 14:00:01,15.17938922,0.0001233,53.2115,308.8195,73.1262,351.2436,-0.063571,-0.01199466,0.0,0 STARLINK-4700,1 53722U 22107Y   22314.58334491 -.01199466  00000-0 -63571-1 0  9991,2 53722  53.2115 308.8195 0001233  73.1262 351.2436 15.17938922  1307,6890.208000000001,94.865,512.922,511.223,0.0
53722.0,STARLINK-4700,PAYLOAD,2022-11-10 16:00:00,15.17719557,0.0001369,53.2116,308.4396,80.3923,79.5765,-0.062909,-0.01181066,0.0,0 STARLINK-4700,1 53722U 22107Y   22314.66667824 -.01181066  00000-0 -62909-1 0  9990,2 53722  53.2116 308.4396 0001369  80.3923  79.5765 15.17719557 10521,6890.871999999999,94.879,513.68,511.793,0.0
53722.0,STARLINK-4700,PAYLOAD,2022-11-10 22:00:00,15.17085354,0.0001313,53.212,307.3015,85.7845,0.5922,-0.060913,-0.01127223,0.0,0 STARLINK-4700,1 53722U 22107Y   22314.91667824 -.01127223  00000-0 -60913-1 0  9996,2 53722  53.2120 307.3015 0001313  85.7845   0.5922 15.17085354  1309,6892.792,94.919,515.562,513.752,0.0
53722.0,STARLINK-4700,PAYLOAD,2022-11-11 14:00:01,15.15497041,0.0001343,53.2121,304.2756,74.8595,52.5602,-0.068176,-0.01199147,0.0,0 STARLINK-4700,1 53722U 22107Y   22315.58334491 -.01199147  00000-0 -68176-1 0  9994,2 53722  53.2121 304.2756 0001343  74.8595  52.5602 15.15497041 10661,6897.607,95.018,520.398,518.5459999999998,0.0
53722.0,STARLINK-4700,PAYLOAD,2022-11-11 22:00:00,15.14650583,0.0001414,53.2114,302.7628,86.1475,60.3421,-0.0658909999999999,-0.01136523,0.0,0 STARLINK-4700,1 53722U 22107Y   22315.91667824 -.01136523  00000-0 -65891-1 0  9990,2 53722  53.2114 302.7628 0001414  86.1475  60.3421 15.14650583  1304,6900.177,95.071,523.0169999999998,521.066,0.0
53722.0,STARLINK-4700,PAYLOAD,2022-11-12 08:00:01,15.13605433,0.0001388,53.2116,300.8788,81.181,177.7688,-0.065297,-0.01096586,0.0,0 STARLINK-4700,1 53722U 22107Y   22316.33334491 -.01096586  00000-0 -65297-1 0  9992,2 53722  53.2116 300.8788 0001388  81.1810 177.7688 15.13605433 10772,6903.353,95.137,526.1759999999998,524.259,0.0
53722.0,STARLINK-4700,PAYLOAD,2022-11-12 14:00:01,15.13055715,0.0001403,53.2113,299.7478,77.6,104.069,-0.073117,-0.01199916,0.0,0 STARLINK-4700,1 53722U 22107Y   22316.58334491 -.01199916  00000-0 -73117-1 0  9990,2 53722  53.2113 299.7478 0001403  77.6000 104.0690 15.13055715  1307,6905.025,95.172,527.8580000000002,525.9209999999998,0.0
53722.0,STARLINK-4700,PAYLOAD,2022-11-12 22:00:00,15.12211677,0.0001459,53.2119,298.2416,88.6125,109.1913,-0.070813,-0.01139865,0.0,0 STARLINK-4700,1 53722U 22107Y   22316.91667824 -.01139865  00000-0 -70813-1 0  9993,2 53722  53.2119 298.2416 0001459  88.6125 109.1913 15.12211677 10865,6907.594,95.225,530.466,528.451,0.0
53722.0,STARLINK-4700,PAYLOAD,2022-11-13 14:00:01,15.10559104,0.0001402,53.2162,295.2413,90.358,136.7473,-0.072312,-0.01113629,0.0,0 STARLINK-4700,1 53722U 22107Y   22317.58334491 -.01113629  00000-0 -72312-1 0  9994,2 53722  53.2162 295.2413 0001402  90.3580 136.7473 15.10559104  1304,6912.630999999999,95.329,535.465,533.5269999999998,0.0
53722.0,STARLINK-4700,PAYLOAD,2022-11-13 22:00:00,15.09718079,0.0001337,53.2124,293.7368,86.7145,153.615,-0.06696,-0.01014762,0.0,0 STARLINK-4700,1 53722U 22107Y   22317.91667824 -.01014762  00000-0 -66960-1 0  9990,2 53722  53.2124 293.7368 0001337  86.7145 153.6150 15.09718079  1303,6915.198,95.382,537.987,536.138,0.0
53722.0,STARLINK-4700,PAYLOAD,2022-11-14 14:00:01,15.08853258,0.0001157,53.2149,290.7445,72.4659,191.6718,-0.0024193,-0.00038598,0.0,0 STARLINK-4700,1 53722U 22107Y   22318.58334491 -.00038598  00000-0 -24193-2 0  9990,2 53722  53.2149 290.7445 0001157  72.4659 191.6718 15.08853258 11115,6917.84,95.437,540.505,538.904,0.0
53722.0,STARLINK-4700,PAYLOAD,2022-11-14 22:00:00,15.08816524,0.0001233,53.2161,289.2483,87.4507,188.2814,0.0065173,0.00104915,0.0,0 STARLINK-4700,1 53722U 22107Y   22318.91667824  .00104915  00000-0  65173-2 0  9994,2 53722  53.2161 289.2483 0001233  87.4507 188.2814 15.08816524  1301,6917.9519999999975,95.439,540.67,538.964,0.0
53722.0,STARLINK-4700,PAYLOAD,2022-11-15 00:00:02,15.08876282,0.0001219,53.2164,288.875,87.2506,281.428,-0.00033982,-5.697e-05,0.0,0 STARLINK-4700,1 53722U 22107Y   22319.00002315 -.00005697  00000-0 -33982-3 0  9996,2 53722  53.2164 288.8750 0001219  87.2506 281.4280 15.08876282 11184,6917.769,95.435,540.4780000000002,538.7909999999998,0.0
53722.0,STARLINK-4700,PAYLOAD,2022-11-15 08:00:01,15.08770357,0.0001349,53.2163,287.3802,81.4993,298.7268,0.0083062999999999,0.00134179,0.0,0 STARLINK-4700,1 53722U 22107Y   22319.33335648  .00134179  00000-0  83063-2 0  9990,2 53722  53.2163 287.3802 0001349  81.4993 298.7268 15.08770357 11234,6918.093000000003,95.442,540.8919999999998,539.025,0.0
53722.0,STARLINK-4700,PAYLOAD,2022-11-15 14:00:01,15.08849283,0.0001274999999999,53.2162,286.2545,83.5603,215.27,-0.0013821,-0.00022222,0.0,0 STARLINK-4700,1 53722U 22107Y   22319.58334491 -.00022222  00000-0 -13821-2 0  9994,2 53722  53.2162 286.2545 0001275  83.5603 215.2700 15.08849283  1301,6917.852,95.437,540.599,538.835,0.0
53722.0,STARLINK-4700,PAYLOAD,2022-11-15 16:00:00,15.0883369,0.0001274999999999,53.2163,285.88,87.7919,303.9423,0.000763,0.00011874,0.0,0 STARLINK-4700,1 53722U 22107Y   22319.66667824  .00011874  00000-0  76300-3 0  9993,2 53722  53.2163 285.8800 0001275  87.7919 303.9423 15.08833690 11287,6917.9,95.438,540.6469999999998,538.883,0.0
53722.0,STARLINK-4700,PAYLOAD,2022-11-15 22:00:00,15.08844195,0.0001333,53.2165,284.7573,93.384,217.0408,0.0017974,0.00028437,0.0,0 STARLINK-4700,1 53722U 22107Y   22319.91667824  .00028437  00000-0  17974-2 0  9995,2 53722  53.2165 284.7573 0001333  93.3840 217.0408 15.08844195  1307,6917.868,95.437,540.655,538.81,0.0
53722.0,STARLINK-4700,PAYLOAD,2022-11-16 14:00:01,15.08856609,0.0001296999999999,53.2164,281.7652,91.6365,242.0648,-0.0012273,-0.00019776,0.0,0 STARLINK-4700,1 53722U 22107Y   22320.58335648 -.00019776  00000-0 -12273-2 0  9991,2 53722  53.2164 281.7652 0001297  91.6365 242.0648 15.08856609  1300,6917.83,95.437,540.592,538.797,0.0
53722.0,STARLINK-4700,PAYLOAD,2022-11-16 20:00:01,15.0883637,0.0001341,53.2166,280.6429,99.6294,152.7169,0.0030161,0.00048036,0.0,0 STARLINK-4700,1 53722U 22107Y   22320.83334491  .00048036  00000-0  30161-2 0  9999,2 53722  53.2166 280.6429 0001341  99.6294 152.7169 15.08836370 11456,6917.891,95.438,540.684,538.8290000000002,0.0
53722.0,STARLINK-4700,PAYLOAD,2022-11-16 22:00:08,15.08854814,0.0001373,53.2168,280.269,99.7682,245.9137,0.0016797,0.00026556,0.0,0 STARLINK-4700,1 53722U 22107Y   22320.91675926  .00026556  00000-0  16797-2 0  9991,2 53722  53.2168 280.2690 0001373  99.7682 245.9137 15.08854814  1307,6917.835,95.437,540.65,538.75,0.0
53722.0,STARLINK-4700,PAYLOAD,2022-11-17 06:00:00,15.08823864,0.000119,53.2171,278.776,81.4977,275.3631,0.0039447,0.00063025,0.0,0 STARLINK-4700,1 53722U 22107Y   22321.25001157  .00063025  00000-0  39447-2 0  9997,2 53722  53.2171 278.7760 0001190  81.4977 275.3631 15.08823864 11525,6917.93,95.439,540.618,538.971,0.0
53722.0,STARLINK-4700,PAYLOAD,2022-11-17 14:00:01,15.08836594,9.89e-05,53.216,277.276,91.934,276.5169,-0.0012004,-0.00019339,0.0,0 STARLINK-4700,1 53722U 22107Y   22321.58334491 -.00019339  00000-0 -12004-2 0  9994,2 53722  53.2160 277.2760 0000989  91.9340 276.5169 15.08836594 11570,6917.891,95.438,540.44,539.072,0.0
53722.0,STARLINK-4700,PAYLOAD,2022-11-17 22:00:00,15.08840783,0.0001032,53.2163,275.7793,99.7384,280.2908,0.00085052,0.00013274,0.0,0 STARLINK-4700,1 53722U 22107Y   22321.91667824  .00013274  00000-0  85052-3 0  9994,2 53722  53.2163 275.7793 0001032  99.7384 280.2908 15.08840783  1304,6917.878000000002,95.438,540.457,539.029,0.0
53722.0,STARLINK-4700,PAYLOAD,2022-11-18 06:00:00,15.08834743,0.000105,53.2161,274.2845,83.3266,308.3081,-0.00023041,-3.952e-05,0.0,0 STARLINK-4700,1 53722U 22107Y   22322.25001157 -.00003952  00000-0 -23041-3 0  9997,2 53722  53.2161 274.2845 0001050  83.3266 308.3081 15.08834743 11676,6917.896,95.438,540.488,539.035,0.0
53722.0,STARLINK-4700,PAYLOAD,2022-11-18 14:00:01,15.08846822,0.0001012,53.2161,272.7867,98.5417,304.6825,-0.00058308,-9.557e-05,0.0,0 STARLINK-4700,1 53722U 22107Y   22322.58334491 -.00009557  00000-0 -58308-3 0  9994,2 53722  53.2161 272.7867 0001012  98.5417 304.6825 15.08846822  1302,6917.86,95.437,540.425,539.024,0.0
53722.0,STARLINK-4700,PAYLOAD,2022-11-18 22:00:00,15.08859284,0.0001078,53.2163,271.2902,105.4714,309.3443,-0.00016732,-2.951e-05,0.0,0 STARLINK-4700,1 53722U 22107Y   22322.91667824 -.00002951  00000-0 -16732-3 0  9996,2 53722  53.2163 271.2902 0001078 105.4714 309.3443 15.08859284  1302,6917.821,95.436,540.432,538.941,0.0
